*******************************************************************************
Ephemeris / PORT_LOGIN Tue Sep  8 16:15:18 2015 Pasadena, USA    / Horizons    
*******************************************************************************
Target body name: Sinope (509)                    {source: JUP300}
Center body name: Jupiter (599)                   {source: JUP310}
Center-site name: BODY CENTER
*******************************************************************************
Start time      : A.D. 1900-Jan-01 00:00:00.0000 CT 
Stop  time      : A.D. 2099-Dec-31 00:00:00.0000 CT 
Step-size       : 14400 minutes
*******************************************************************************
Center geodetic : 0.00000000,0.00000000,0.0000000 {E-lon(deg),Lat(deg),Alt(km)}
Center cylindric: 0.00000000,0.00000000,0.0000000 {E-lon(deg),Dxy(km),Dz(km)}
Center radii    : 71492.0 x 71492.0 x 66854.0 km  {Equator, meridian, pole}    
Output units    : AU-D                                                         
Output format   : 03
Reference frame : ICRF/J2000.0                                                 
Output type     : GEOMETRIC cartesian states
Coordinate systm: Ecliptic and Mean Equinox of Reference Epoch                 
*******************************************************************************
JDCT 
   X     Y     Z
   VX    VY    VZ
   LT    RG    RR
*******************************************************************************
$$SOE
2418740.500000000 = A.D. 1910-Mar-10 00:00:00.0000 (CT)
  -1.227395344722011E-01 -6.764610901223433E-02  6.712242877465646E-02
  -8.554002857073410E-04  1.062126370673972E-03  1.491264143203178E-04
   8.974644415608335E-04  1.553911510722427E-01  2.777020662090341E-04
2418750.500000000 = A.D. 1910-Mar-20 00:00:00.0000 (CT)
  -1.308505551968449E-01 -5.677866338001500E-02  6.835924276494137E-02
  -7.670738717314340E-04  1.109514310338251E-03  9.851676162008494E-05
   9.135305599381875E-04  1.581729132371905E-01  2.788709695755819E-04
2418760.500000000 = A.D. 1910-Mar-30 00:00:00.0000 (CT)
  -1.380810009592147E-01 -4.550952430199641E-02  6.909826470086038E-02
  -6.783651350810145E-04  1.143359791974129E-03  4.965634060955735E-05
   9.296979034316314E-04  1.609722019876812E-01  2.799660005894143E-04
2418770.500000000 = A.D. 1910-Apr-09 00:00:00.0000 (CT)
  -1.444278646571051E-01 -3.393705425990389E-02  6.935952394632752E-02
  -5.908180667134614E-04  1.168277566140830E-03  2.921358938744844E-06
   9.458788968563486E-04  1.637738541505082E-01  2.801748601862517E-04
2418780.500000000 = A.D. 1910-Apr-19 00:00:00.0000 (CT)
  -1.498951330916146E-01 -2.215590730351096E-02  6.916491734997163E-02
  -5.039539003356035E-04  1.186810846444001E-03 -4.145565028390556E-05
   9.619874513753550E-04  1.665629639056145E-01  2.784417865122413E-04
2418790.500000000 = A.D. 1910-Apr-29 00:00:00.0000 (CT)
  -1.545033634236476E-01 -1.025276619222205E-02  6.853761099343562E-02
  -4.175077799113938E-04  1.193066906950919E-03 -8.357959348751260E-05
   9.779883653962870E-04  1.693334362862209E-01  2.748764541640379E-04
2418800.500000000 = A.D. 1910-May-09 00:00:00.0000 (CT)
  -1.582606031572277E-01  1.695504543239514E-03  6.750194079926415E-02
  -3.344060718347744E-04  1.194883792188088E-03 -1.231642438879604E-04
   9.937551805533770E-04  1.720633757050379E-01  2.710362494964819E-04
2418810.500000000 = A.D. 1910-May-19 00:00:00.0000 (CT)
  -1.611941791824849E-01  1.361421635401886E-02  6.608233037382837E-02
  -2.527010981576646E-04  1.188610840277046E-03 -1.603174474940328E-04
   1.009242449307204E-03  1.747449131645464E-01  2.650823984941595E-04
2418820.500000000 = A.D. 1910-May-29 00:00:00.0000 (CT)
  -1.633253465132282E-01  2.543965076471907E-02  6.430355414878325E-02
  -1.731193558500578E-04  1.174824002547944E-03 -1.950387825201543E-04
   1.024357688701485E-03  1.773620357372525E-01  2.572151588960775E-04
2418830.500000000 = A.D. 1910-Jun-08 00:00:00.0000 (CT)
  -1.646752065485257E-01  3.711176128913443E-02  6.219016176201746E-02
  -9.798684444900174E-05  1.158220131457458E-03 -2.272598454595660E-04
   1.038996689046463E-03  1.798967000747017E-01  2.500672125601789E-04
2418840.500000000 = A.D. 1910-Jun-18 00:00:00.0000 (CT)
  -1.652773647383440E-01  4.857533020373009E-02  5.976614510751181E-02
  -2.319497656731999E-05  1.134222128559126E-03 -2.571384685838770E-04
   1.053112549912916E-03  1.823407856193045E-01  2.388968756896279E-04
2418850.500000000 = A.D. 1910-Jun-28 00:00:00.0000 (CT)
  -1.651504245908157E-01  5.978354441768231E-02  5.705526262259645E-02
   4.833496930653851E-05  1.106685934379520E-03 -2.846524586518972E-04
   1.066581061323391E-03  1.846727860801400E-01  2.270943495057917E-04
2418860.500000000 = A.D. 1910-Jul-08 00:00:00.0000 (CT)
  -1.643272273515443E-01  7.069094724320053E-02  5.408035631801626E-02
   1.159188294118115E-04  1.074456072595577E-03 -3.099484352988853E-04
   1.079347380944661E-03  1.868832058015666E-01  2.148056895458013E-04
2418870.500000000 = A.D. 1910-Jul-18 00:00:00.0000 (CT)
  -1.628325834966179E-01  8.125854996632292E-02  5.086372856851672E-02
   1.828809867812640E-04  1.038235241992448E-03 -3.330218361990512E-04
   1.091321151641082E-03  1.889563999305241E-01  1.992405362732435E-04
2418880.500000000 = A.D. 1910-Jul-28 00:00:00.0000 (CT)
  -1.606897390365289E-01  9.145025027765484E-02  4.742694968631623E-02
   2.453546838801183E-04  9.993464713953220E-04 -3.539880278505332E-04
   1.102407968472268E-03  1.908760227582863E-01  1.842868051438094E-04
2418890.500000000 = A.D. 1910-Aug-07 00:00:00.0000 (CT)
  -1.579310782209411E-01  1.012328349546148E-01  4.379072440993580E-02
   3.055779784573798E-04  9.563365747866996E-04 -3.729416976748599E-04
   1.112562426452571E-03  1.926342126552920E-01  1.672652820602453E-04
2418900.500000000 = A.D. 1910-Aug-17 00:00:00.0000 (CT)
  -1.545736580317438E-01  1.105768687511835E-01  3.997525458628704E-02
   3.649984976521861E-04  9.124108008595354E-04 -3.898211359842516E-04
   1.121674664273260E-03  1.942119477255954E-01  1.487507725443834E-04
2418910.500000000 = A.D. 1910-Aug-27 00:00:00.0000 (CT)
  -1.506485596862813E-01  1.194546496302147E-01  3.599988114445263E-02
   4.202608430454551E-04  8.633277910695328E-04 -4.049127315031620E-04
   1.129706640693239E-03  1.956026413324808E-01  1.290372037972952E-04
2418920.500000000 = A.D. 1910-Sep-06 00:00:00.0000 (CT)
  -1.461765303453600E-01  1.278420462574353E-01  3.188349241890379E-02
   4.738531807672083E-04  8.130522610749599E-04 -4.180859977856835E-04
   1.136585086907696E-03  1.967936073756525E-01  1.084690171403681E-04
2418930.500000000 = A.D. 1910-Sep-16 00:00:00.0000 (CT)
  -1.411774999917198E-01  1.357146217259835E-01  2.764437669618051E-02
   5.254825873057418E-04  7.614986310161011E-04 -4.294225664484999E-04
   1.142235703876889E-03  1.977719813751664E-01  8.741916513775297E-05
2418940.500000000 = A.D. 1910-Sep-26 00:00:00.0000 (CT)
  -1.356808151999805E-01  1.430513356164305E-01  2.330030362462084E-02
   5.739084720607365E-04  7.049740061162730E-04 -4.391143252767094E-04
   1.146638548813995E-03  1.985343103445231E-01  6.420858280583000E-05
2418950.500000000 = A.D. 1910-Oct-06 00:00:00.0000 (CT)
  -1.296988347540126E-01  1.498315036907128E-01  1.886884108958346E-02
   6.210913307210988E-04  6.504315430861427E-04 -4.469162309079487E-04
   1.149709738970278E-03  1.990660704360055E-01  4.253624396271114E-05
2418960.500000000 = A.D. 1910-Oct-16 00:00:00.0000 (CT)
  -1.232599810911418E-01  1.560345196937329E-01  1.436705540327006E-02
   6.665937608460737E-04  5.911707249671163E-04 -4.531105355206521E-04
   1.151433363429480E-03  1.993645067598623E-01  1.790108811368242E-05
2418970.500000000 = A.D. 1910-Oct-26 00:00:00.0000 (CT)
  -1.163826976755863E-01  1.616434940534450E-01  9.812048260680349E-03
   7.092315370424563E-04  5.295660141269641E-04 -4.576275702727421E-04
   1.151775461800763E-03  1.994237392566967E-01 -7.178897118443595E-06
2418980.500000000 = A.D. 1910-Nov-05 00:00:00.0000 (CT)
  -1.090834972494593E-01  1.666385849775752E-01  5.220771596438785E-03
   7.497644429451918E-04  4.692319921899423E-04 -4.603458955357287E-04
   1.150689722829798E-03  1.992357493813887E-01 -3.010570713131262E-05
2418990.500000000 = A.D. 1910-Nov-15 00:00:00.0000 (CT)
  -1.013910920142019E-01  1.710022866684401E-01  6.101352023262824E-04
   7.889048948643832E-04  4.032891152755900E-04 -4.614848676078888E-04
   1.148185650576704E-03  1.988021827109371E-01 -5.687128729637095E-05
2419000.500000000 = A.D. 1910-Nov-25 00:00:00.0000 (CT)
  -9.331715692320408E-02  1.747173002334470E-01 -4.002569155263131E-03
   8.250345036468886E-04  3.385549770871021E-04 -4.607996665958137E-04
   1.144226931685869E-03  1.981167517827228E-01 -8.073057926918010E-05
2419010.500000000 = A.D. 1910-Dec-05 00:00:00.0000 (CT)
  -8.488944267058858E-02  1.777644292421250E-01 -8.600004653077937E-03
   8.595942315612087E-04  2.715746210713047E-04 -4.583652170563416E-04
   1.138822818411728E-03  1.971810585749417E-01 -1.052445142509273E-04
2419020.500000000 = A.D. 1910-Dec-15 00:00:00.0000 (CT)
  -7.612906853899919E-02  1.801271773777919E-01 -1.316424379121670E-02
   8.928303763895617E-04  2.007426803758933E-04 -4.541654725927179E-04
   1.131982916981025E-03  1.959967663541946E-01 -1.318000699718326E-04
2419030.500000000 = A.D. 1910-Dec-25 00:00:00.0000 (CT)
  -6.705493042274668E-02  1.817867948379695E-01 -1.767680403554641E-02
   9.216436116836070E-04  1.305868582418264E-04 -4.480349584305303E-04
   1.123709756066384E-03  1.945643129465743E-01 -1.549202689359450E-04
2419040.500000000 = A.D. 1911-Jan-04 00:00:00.0000 (CT)
  -5.769919706655131E-02  1.827248801851529E-01 -2.211862907136032E-02
   9.490813880077088E-04  5.669990899160635E-05 -4.399977418617767E-04
   1.114043635875906E-03  1.928906761168088E-01 -1.797318761865993E-04
